[{"OBJECT_NAME":"LIZZIESAT-3 (LS-3)","OBJECT_ID":"2025-052Z","EPOCH":"2026-03-09T23:14:46.856832","MEAN_MOTION":15.20716998,"ECCENTRICITY":0.00070924,"INCLINATION":97.4033,"RA_OF_ASC_NODE":322.5624,"ARG_OF_PERICENTER":136.4425,"MEAN_ANOMALY":223.7371,"EPHEMERIS_TYPE":0,"CLASSIFICATION_TYPE":"U","NORAD_CAT_ID":63233,"ELEMENT_SET_NO":999,"REV_AT_EPOCH":5472,"BSTAR":0.00032646441,"MEAN_MOTION_DOT":7.117e-5,"MEAN_MOTION_DDOT":0},{"OBJECT_NAME":"NOAA 16 DEB","OBJECT_ID":"2000-055JP","EPOCH":"2026-03-07T06:03:41.025888","MEAN_MOTION":15.14327742,"ECCENTRICITY":0.002834,"INCLINATION":98.88,"RA_OF_ASC_NODE":0.7915,"ARG_OF_PERICENTER":107.2535,"MEAN_ANOMALY":253.1797,"EPHEMERIS_TYPE":0,"CLASSIFICATION_TYPE":"U","NORAD_CAT_ID":41370,"ELEMENT_SET_NO":999,"REV_AT_EPOCH":54059,"BSTAR":0.01119,"MEAN_MOTION_DOT":0.00212823,"MEAN_MOTION_DDOT":0}]
